STARLINK-30702          
1 57955U 23148W   26068.24187221 -.00000848  00000+0 -16506-4 0  9991
2 57955  53.1613  16.2915 0000951  79.3427 280.7681 15.30191301138494
TOMORROW-S1             
1 60479U 24149M   26068.72470524  .00008620  00000+0  28856-3 0  9996
2 60479  97.3791 149.6044 0001819 207.2040 152.9106 15.31198362 86867
